GLOBALSTAR M057         
1 25943U 99058A   25028.24014752 -.00000044  00000+0  44492-3 0  9990
2 25943  52.0004  25.3686 0002704  92.2776 267.8383 12.24808979149788
GLOBALSTAR M059         
1 25944U 99058B   25028.26175772 -.00000057  00000+0  36373-3 0  9996
2 25944  51.9987 225.7158 0001378  76.8685  98.7695 11.99973196145991
GLOBALSTAR M056         
1 25945U 99058C   25028.07315958 -.00000003  00000+0  98204-3 0  9990
2 25945  51.9941 231.7816 0000240  52.4804 124.8191 12.04777974145737
GLOBALSTAR M031         
1 25946U 99058D   25028.43420096  .00000030  00000+0  12190-2 0  9999
2 25946  51.9956 131.4935 0001017 214.6933 223.1162 12.16027767147543
GLOBALSTAR M039         
1 25961U 99062A   25028.01550926 -.00000069  00000+0  19215-3 0  9990
2 25961  51.9871 335.6509 0003149  41.3303 318.7802 12.62316577162512
GLOBALSTAR M034         
1 25962U 99062B   25028.27444199 -.00000018  00000+0  99720-3 0  9996
2 25962  51.9898  15.0791 0014178 136.5421 242.7629 11.79442079121888
GLOBALSTAR M029         
1 25963U 99062C   25028.47429840 -.00000071  00000+0  18730-3 0  9996
2 25963  51.9802 113.2966 0002892 187.6323 187.7161 11.99890721152401
GLOBALSTAR M061         
1 25964U 99062D   25028.25270233 -.00000101  00000+0 -33476-3 0  9992
2 25964  51.9767 197.3134 0007081  67.5016 107.9223 11.76770478104706
